{"fetched_at":"2026-03-29T02:12:04Z","count":15717,"tles":[{"name":"COSMOS 2576","line1":"1 59773U 24092A   26087.75150121  .00015711  00000+0  57193-3 0  9995","line2":"2 59773  97.4270 204.8678 0006570 105.5980 254.5985 15.28285990104162","category":"Other"}]}